CCSDS_OEM_VERS = 1.0
CREATION_DATE  = 2017-05-11T12:05:40
ORIGINATOR     = GMAT USER

META_START
OBJECT_NAME          = MOPSSat_alt_35785_km_RAAN_270_144
OBJECT_ID            = SatId
CENTER_NAME          = Earth
REF_FRAME            = EME2000
TIME_SYSTEM          = UTC
START_TIME           = 2017-01-01T00:00:00.000
USEABLE_START_TIME   = 2017-01-01T00:00:00.000
USEABLE_STOP_TIME    = 2017-01-02T00:00:00.000
STOP_TIME            = 2017-01-02T00:00:00.000
INTERPOLATION        = Lagrange
INTERPOLATION_DEGREE = 7 
META_STOP


                                                                                   

2017-01-01T20:55:50.000  -3.480914327476054e+04   8.305834131056765e+03   3.520280557541910e+00   9.499947832241628e-01  -3.452422231285647e+00  -3.043524553536759e-05
2017-01-01T20:56:00.000  -3.479962818284476e+04   8.271306299458232e+03   3.519974791052141e+00   9.530241554956417e-01  -3.453143626788655e+00  -3.071812504566933e-05
2017-01-01T20:56:10.000  -3.479008277952129e+04   8.236771264081690e+03   3.519666193555182e+00   9.560570850366410e-01  -3.453863057310737e+00  -3.100144769738825e-05
2017-01-01T20:56:20.000  -3.478050702918628e+04   8.202229044574675e+03   3.519354760616161e+00   9.590935761915301e-01  -3.454580515736859e+00  -3.128521413281143e-05
2017-01-01T20:56:30.000  -3.477090089619855e+04   8.167679660680148e+03   3.519040487793958e+00   9.621336333035381e-01  -3.455295994927953e+00  -3.156942499468126e-05
2017-01-01T20:56:40.000  -3.476126434485165e+04   8.133123132132015e+03   3.518723370640332e+00   9.651772607238255e-01  -3.456009487723075e+00  -3.185408092704232e-05
2017-01-01T20:56:50.000  -3.475159733938280e+04   8.098559478695514e+03   3.518403404700087e+00   9.682244628081212e-01  -3.456720986938356e+00  -3.213918257493173e-05
2017-01-01T20:57:00.000  -3.474189984398020e+04   8.063988720187218e+03   3.518080585511398e+00   9.712752439147734e-01  -3.457430485366638e+00  -3.242473058419620e-05
2017-01-01T20:57:10.000  -3.473217182279443e+04   8.029410876516627e+03   3.517754908606201e+00   9.743296084010639e-01  -3.458137975776546e+00  -3.271072560114677e-05
2017-01-01T20:57:20.000  -3.472241323994218e+04   7.994825967705362e+03   3.517426369510189e+00   9.773875606216674e-01  -3.458843450911904e+00  -3.299716827242647e-05
2017-01-01T20:57:30.000  -3.471262405951992e+04   7.960234013928603e+03   3.517094963743404e+00   9.804491049247557e-01  -3.459546903490964e+00  -3.328405924463466e-05
2017-01-01T20:57:40.000  -3.470280424557323e+04   7.925635035410043e+03   3.516760686819135e+00   9.835142456613626e-01  -3.460248326208415e+00  -3.357139916521051e-05
2017-01-01T20:57:50.000  -3.469295376222921e+04   7.891029052878720e+03   3.516423534248605e+00   9.865829871446024e-01  -3.460947711726266e+00  -3.385918867859609e-05
2017-01-01T20:58:00.000  -3.468307257353665e+04   7.856416087016103e+03   3.516083501535334e+00   9.896553336989174e-01  -3.461645052684766e+00  -3.414742843086926e-05
2017-01-01T20:58:10.000  -3.467316064352517e+04   7.821796158661980e+03   3.515740584177209e+00   9.927312896417481e-01  -3.462340341698213e+00  -3.443611906802240e-05
2017-01-01T20:58:20.000  -3.466321793597754e+04   7.787169288018408e+03   3.515394777658613e+00   9.958108593541998e-01  -3.463033571370909e+00  -3.472526124259860e-05
2017-01-01T20:58:30.000  -3.465324441465648e+04   7.752535495444162e+03   3.515046077458219e+00   9.988940472105049e-01  -3.463724734281072e+00  -3.501485560707090e-05
2017-01-01T20:58:40.000  -3.464324004325381e+04   7.717894801275151e+03   3.514694479047287e+00   1.001980857593881e+00  -3.464413822984429e+00  -3.530490281533086e-05
2017-01-01T20:58:50.000  -3.463320478551574e+04   7.683247226272342e+03   3.514339977893798e+00   1.005071294857016e+00  -3.465100830004925e+00  -3.559540351898835e-05
2017-01-01T20:59:00.000  -3.462313860515110e+04   7.648592791289910e+03   3.513982569459478e+00   1.008165363351186e+00  -3.465785747841571e+00  -3.588635837009701e-05
2017-01-01T20:59:10.000  -3.461304146582961e+04   7.613931517275103e+03   3.513622249199635e+00   1.011263067426417e+00  -3.466468568968246e+00  -3.617776802117508e-05
2017-01-01T20:59:20.000  -3.460291333128307e+04   7.579263425602677e+03   3.513259012567009e+00   1.014364411401167e+00  -3.467149285827335e+00  -3.646963312234381e-05
2017-01-01T20:59:30.000  -3.459275416517063e+04   7.544588537625373e+03   3.512892855006718e+00   1.017469399602869e+00  -3.467827890838230e+00  -3.676195432515239e-05
2017-01-01T20:59:40.000  -3.458256393113136e+04   7.509906874851236e+03   3.512523771958202e+00   1.020578036351946e+00  -3.468504376393833e+00  -3.705473228107453e-05
2017-01-01T20:59:50.000  -3.457234259255459e+04   7.475218458161263e+03   3.512151758846892e+00   1.023690326031909e+00  -3.469178734875771e+00  -3.734796764810661e-05
2017-01-01T21:00:00.000  -3.456209011280920e+04   7.440523308592189e+03   3.511776811092502e+00   1.026806273019208e+00  -3.469850958638995e+00  -3.764166108416784e-05
2017-01-01T21:00:10.000  -3.455180645519240e+04   7.405821447159940e+03   3.511398924107191e+00   1.029925881698972e+00  -3.470521040015223e+00  -3.793581324857968e-05
2017-01-01T21:00:20.000  -3.454149158305860e+04   7.371112895308383e+03   3.511018093300050e+00   1.033049156425061e+00  -3.471188971303873e+00  -3.823042479831831e-05
2017-01-01T21:00:30.000  -3.453114545972496e+04   7.336397674576873e+03   3.510634314073878e+00   1.036176101549502e+00  -3.471854744778735e+00  -3.852549639077329e-05
2017-01-01T21:00:40.000  -3.452076804846965e+04   7.301675806600126e+03   3.510247581825020e+00   1.039306721422639e+00  -3.472518352687774e+00  -3.882102868376997e-05
2017-01-01T21:00:50.000  -3.451035931263575e+04   7.266947313443223e+03   3.509857891947464e+00   1.042441020362497e+00  -3.473179787246953e+00  -3.911702233266328e-05
2017-01-01T21:01:00.000  -3.449991921549298e+04   7.232212217151337e+03   3.509465239827452e+00   1.045579002695748e+00  -3.473839040648484e+00  -3.941347799422026e-05
2017-01-01T21:01:10.000  -3.448944772029270e+04   7.197470539930727e+03   3.509069620845597e+00   1.048720672741251e+00  -3.474496105057357e+00  -3.971039632506470e-05
2017-01-01T21:01:20.000  -3.447894479002770e+04   7.162722303351895e+03   3.508671030367799e+00   1.051866034882088e+00  -3.475150972626360e+00  -4.000777798848482e-05
2017-01-01T21:01:30.000  -3.446841038767268e+04   7.127967529148897e+03   3.508269463754307e+00   1.055015093493286e+00  -3.475803635480848e+00  -4.030562364760607e-05
2017-01-01T21:01:40.000  -3.445784447612258e+04   7.093206239013411e+03   3.507864916357398e+00   1.058167852960378e+00  -3.476454085722591e+00  -4.060393396714436e-05
2017-01-01T21:01:50.000  -3.444724701835767e+04   7.058438455149298e+03   3.507457383527508e+00   1.061324317629424e+00  -3.477102315419065e+00  -4.090270960869375e-05
2017-01-01T21:02:00.000  -3.443661797730786e+04   7.023664199815560e+03   3.507046860608209e+00   1.064484491848097e+00  -3.477748316612190e+00  -4.120195123459968e-05
2017-01-01T21:02:10.000  -3.442595731588281e+04   6.988883495428634e+03   3.506633342937322e+00   1.067648379956469e+00  -3.478392081316257e+00  -4.150165950709325e-05
2017-01-01T21:02:20.000  -3.441526499696583e+04   6.954096364535351e+03   3.506216825846797e+00   1.070815986289205e+00  -3.479033601518546e+00  -4.180183508848851e-05
2017-01-01T21:02:30.000  -3.440454098340141e+04   6.919302829778162e+03   3.505797304662113e+00   1.073987315178895e+00  -3.479672869179737e+00  -4.210247864150914e-05
2017-01-01T21:02:40.000  -3.439378523799145e+04   6.884502913882902e+03   3.505374774702156e+00   1.077162370957107e+00  -3.480309876234088e+00  -4.240359082938824e-05
2017-01-01T21:02:50.000  -3.438299772345802e+04   6.849696639534820e+03   3.504949231277786e+00   1.080341157965574e+00  -3.480944614591702e+00  -4.270517231692918e-05
2017-01-01T21:03:00.000  -3.437217840246762e+04   6.814884029461541e+03   3.504520669692730e+00   1.083523680548722e+00  -3.481577076136829e+00  -4.300722376980042e-05
2017-01-01T21:03:10.000  -3.436132723763149e+04   6.780065106433398e+03   3.504089085243594e+00   1.086709943053585e+00  -3.482207252727807e+00  -4.330974585452859e-05
2017-01-01T21:03:20.000  -3.435044419147845e+04   6.745239893180432e+03   3.503654473218717e+00   1.089899949837494e+00  -3.482835136198406e+00  -4.361273923923076e-05
2017-01-01T21:03:30.000  -3.433952922649479e+04   6.710408412517363e+03   3.503216828899791e+00   1.093093705256516e+00  -3.483460718355532e+00  -4.391620459251881e-05
2017-01-01T21:03:40.000  -3.432858230512831e+04   6.675570687356476e+03   3.502776147562046e+00   1.096291213664224e+00  -3.484083990978966e+00  -4.422014258338072e-05
2017-01-01T21:03:50.000  -3.431760338979731e+04   6.640726740742186e+03   3.502332424474481e+00   1.099492479408688e+00  -3.484704945820489e+00  -4.452455388090746e-05
2017-01-01T21:04:00.000  -3.430659244290174e+04   6.605876595879638e+03   3.501885654900457e+00   1.102697506829588e+00  -3.485323574603499e+00  -4.482943915400656e-05
2017-01-01T21:04:10.000  -3.429554942678990e+04   6.571020276032274e+03   3.501435834096270e+00   1.105906300267689e+00  -3.485939869024660e+00  -4.513479907231065e-05
2017-01-01T21:04:20.000  -3.428447430390708e+04   6.536157804982016e+03   3.500982957317382e+00   1.109118864022140e+00  -3.486553820745939e+00  -4.544063430210003e-05
2017-01-01T21:04:30.000  -3.427336703661612e+04   6.501289206472376e+03   3.500527019810939e+00   1.112335202402017e+00  -3.487165421404129e+00  -4.574694551122353e-05
2017-01-01T21:04:40.000  -3.426222758726384e+04   6.466414504415839e+03   3.500068016818509e+00   1.115555319707119e+00  -3.487774662607168e+00  -4.605373336726844e-05
2017-01-01T21:04:50.000  -3.425105591792516e+04   6.431533722092011e+03   3.499605943565553e+00   1.118779220301942e+00  -3.488381535948098e+00  -4.636099854461038e-05
